{"type":"FeatureCollection","features":[{"type":"Feature","properties":{"w":14},"geometry":{"coordinates":[[13.45161,52.49967],[13.45067,52.49893],[13.4505,52.4988],[13.44969,52.49816]],"type":"LineString"}},{"type":"Feature","properties":{"w":14},"geometry":{"coordinates":[[13.39175,52.49762],[13.39097,52.49757],[13.39064,52.49758],[13.39051,52.49758],[13.39002,52.49764],[13.38952,52.49772],[13.38903,52.49782],[13.38837,52.49796],[13.38658,52.49838],[13.38524,52.49871],[13.38481,52.49879],[13.38436,52.49886],[13.38388,52.49892],[13.3835,52.49894],[13.38302,52.49895],[13.38268,52.49894],[13.38236,52.49892],[13.38191,52.49889],[13.38147,52.49887],[13.38102,52.49889],[13.38065,52.49894],[13.38032,52.49899],[13.3798,52.49908],[13.37944,52.49915],[13.37912,52.49924],[13.37891,52.49931],[13.37875,52.49939],[13.37838,52.4996],[13.37809,52.4998],[13.37784,52.50004],[13.37765,52.50029],[13.37747,52.50057],[13.37719,52.50103],[13.37702,52.50131],[13.37684,52.50149],[13.3765,52.50176],[13.37623,52.50195],[13.37588,52.50216],[13.37529,52.50249],[13.37487,52.50273],[13.37459,52.50288],[13.37418,52.50312],[13.37386,52.50336],[13.37356,52.50365],[13.37329,52.50395],[13.37305,52.5042],[13.37282,52.50439],[13.37255,52.50458],[13.37221,52.50477],[13.37181,52.50496],[13.37141,52.50514],[13.37089,52.50534],[13.37032,52.50554],[13.36987,52.50569],[13.36938,52.50582],[13.36892,52.50591],[13.36836,52.50601],[13.36785,52.50605],[13.36731,52.50607],[13.36681,52.50607],[13.3661,52.50604],[13.3653,52.50602],[13.36473,52.50597],[13.36429,52.50591],[13.36382,52.50584],[13.36337,52.50575],[13.36312,52.50572],[13.3629,52.50571],[13.36253,52.5057],[13.36208,52.50571],[13.36169,52.50576],[13.36121,52.50583],[13.3606,52.50597],[13.35997,52.50611],[13.35931,52.50628],[13.35872,52.50646],[13.35825,52.50659],[13.35787,52.50665],[13.35741,52.50667],[13.35715,52.50666],[13.35667,52.5066],[13.35616,52.50649],[13.3557,52.50635],[13.35506,52.50621],[13.35392,52.50592],[13.35328,52.50579],[13.35298,52.50573],[13.35267,52.50571],[13.35255,52.50572],[13.3523,52.50574],[13.35213,52.50576],[13.35187,52.50581],[13.35161,52.50588],[13.35145,52.50594],[13.35087,52.50614],[13.34811,52.50727],[13.34748,52.50754],[13.34698,52.50773],[13.34646,52.50789],[13.34591,52.50806],[13.34531,52.50827],[13.34478,52.50852],[13.3444,52.50872],[13.34407,52.50887],[13.3437,52.50898],[13.3433,52.50906],[13.34247,52.50923],[13.34186,52.50937],[13.34092,52.50964],[13.34037,52.50989],[13.33994,52.51007],[13.33956,52.51023],[13.33915,52.51039],[13.33871,52.51055],[13.33825,52.51074],[13.33786,52.51093],[13.33718,52.51119],[13.33641,52.51137]],"type":"LineString"}},{"type":"Feature","properties":{},"geometry":{"coordinates":[[[13.41284,52.49542],[13.41337,52.49535],[13.41374,52.49532],[13.41416,52.49531],[13.41413,52.49521],[13.4141,52.49509],[13.41377,52.4951],[13.41367,52.4951],[13.41355,52.4951],[13.41343,52.49512],[13.41335,52.49513],[13.41327,52.49515],[13.41318,52.49515],[13.41313,52.49515],[13.41307,52.49515],[13.41287,52.49512],[13.41236,52.49505],[13.41184,52.49499],[13.41171,52.49498],[13.41158,52.49498],[13.41152,52.49499],[13.4115,52.49499],[13.41147,52.49499],[13.41101,52.49507],[13.40771,52.49567],[13.40737,52.49572],[13.40704,52.49576],[13.40653,52.49583],[13.40644,52.49584],[13.40633,52.49587],[13.4062,52.49591],[13.40613,52.49594],[13.40606,52.49598],[13.406,52.49602],[13.40559,52.49639],[13.40561,52.49645],[13.40562,52.49662],[13.40674,52.49647],[13.40782,52.49634],[13.40892,52.49616],[13.41045,52.49586],[13.41047,52.49586],[13.41049,52.49589],[13.41052,52.4959],[13.41054,52.4959],[13.41057,52.4959],[13.41149,52.49573],[13.41159,52.49571],[13.41161,52.49569],[13.41162,52.49567],[13.41162,52.49564],[13.41252,52.49547],[13.41284,52.49542]]],"type":"Polygon"}},{"type":"Feature","properties":{},"geometry":{"coordinates":[[[13.40027,52.53189],[13.40021,52.5319],[13.40014,52.53192],[13.40009,52.53195],[13.40004,52.53198],[13.39996,52.53205],[13.39992,52.53211],[13.3999,52.53216],[13.39988,52.53222],[13.39988,52.53226],[13.39989,52.53231],[13.3999,52.53234],[13.39991,52.53235],[13.39993,52.53237],[13.39995,52.53238],[13.39997,52.53239],[13.4,52.53239],[13.40004,52.53239],[13.40007,52.53238],[13.40011,52.53237],[13.40013,52.53236],[13.40015,52.53234],[13.40017,52.5323],[13.40019,52.53226],[13.40021,52.53224],[13.40025,52.53219],[13.40027,52.53218],[13.40035,52.53214],[13.40039,52.53212],[13.40044,52.53209],[13.40046,52.53207],[13.40047,52.53205],[13.40047,52.53203],[13.40048,52.532],[13.40047,52.53198],[13.40046,52.53196],[13.40044,52.53195],[13.40041,52.53193],[13.40039,52.53192],[13.40036,52.5319],[13.40032,52.53189],[13.40027,52.53189]]],"type":"Polygon"}},{"type":"Feature","properties":{},"geometry":{"coordinates":[[[13.43442,52.52514],[13.43445,52.52514],[13.43452,52.52511],[13.43458,52.52507],[13.43461,52.52506],[13.43463,52.52502],[13.43465,52.52501],[13.43467,52.52498],[13.4347,52.52494],[13.43471,52.52491],[13.43471,52.52489],[13.43468,52.52486],[13.43465,52.52483],[13.43462,52.52481],[13.43458,52.5248],[13.43451,52.52479],[13.43449,52.52479],[13.43445,52.5248],[13.4344,52.52482],[13.43439,52.52483],[13.43436,52.52485],[13.43432,52.52485],[13.43421,52.52483],[13.43415,52.52482],[13.4341,52.52482],[13.43406,52.52483],[13.43405,52.52485],[13.43403,52.52488],[13.43402,52.52493],[13.43402,52.52496],[13.43403,52.52499],[13.43407,52.52502],[13.43411,52.52504],[13.43416,52.52506],[13.4342,52.52508],[13.43426,52.5251],[13.43433,52.52514],[13.43437,52.52515],[13.43442,52.52514]]],"type":"Polygon"}},{"type":"Feature","properties":{},"geometry":{"coordinates":[[[13.41805,52.50634],[13.41841,52.50624],[13.41842,52.50624],[13.41843,52.50624],[13.41844,52.50625],[13.41846,52.50624],[13.41847,52.50624],[13.41849,52.50624],[13.4185,52.50624],[13.41851,52.50623],[13.41853,52.50621],[13.41855,52.5062],[13.41858,52.50619],[13.4186,52.50619],[13.41864,52.50618],[13.41866,52.50618],[13.41869,52.50619],[13.4187,52.50618],[13.41871,52.50618],[13.41872,52.50617],[13.41874,52.50616],[13.41874,52.50616],[13.41875,52.50615],[13.41876,52.50614],[13.41913,52.50604],[13.41912,52.50601],[13.41912,52.50599],[13.41914,52.50597],[13.41917,52.50595],[13.41873,52.50535],[13.41864,52.50528],[13.41852,52.50526],[13.4184,52.50527],[13.41759,52.50548],[13.41749,52.50553],[13.41744,52.5056],[13.41746,52.5057],[13.4179,52.5063],[13.41796,52.5063],[13.41799,52.50631],[13.41802,52.50633],[13.41805,52.50634]]],"type":"Polygon"}},{"type":"Feature","properties":{},"geometry":{"coordinates":[[[13.40675,52.51954],[13.40674,52.51955],[13.40674,52.51955],[13.40673,52.51956],[13.40673,52.51956],[13.40673,52.51957],[13.40673,52.51957],[13.40673,52.51957],[13.40674,52.51958],[13.40674,52.51958],[13.40675,52.51959],[13.40673,52.51959],[13.40674,52.5196],[13.40674,52.51962],[13.40675,52.51962],[13.40675,52.51962],[13.40675,52.51963],[13.40675,52.51963],[13.40674,52.51964],[13.40675,52.51964],[13.40675,52.51965],[13.40675,52.51965],[13.40676,52.51965],[13.40676,52.51966],[13.40677,52.51966],[13.40678,52.51966],[13.40678,52.51966],[13.40679,52.51966],[13.4068,52.51966],[13.40681,52.51966],[13.40681,52.51966],[13.40682,52.51966],[13.40683,52.51965],[13.40683,52.51966],[13.40686,52.51966],[13.40688,52.51966],[13.40688,52.51965],[13.40688,52.51965],[13.40689,52.51965],[13.4069,52.51965],[13.40691,52.51965],[13.40692,52.51965],[13.40692,52.51965],[13.40693,52.51965],[13.40694,52.51965],[13.40694,52.51965],[13.40695,52.51964],[13.40695,52.51964],[13.40695,52.51963],[13.40695,52.51963],[13.40695,52.51962],[13.40695,52.51962],[13.40695,52.51961],[13.40695,52.51961],[13.40694,52.51961],[13.40694,52.5196],[13.40695,52.5196],[13.40695,52.51959],[13.40695,52.51957],[13.40693,52.51957],[13.40693,52.51957],[13.40694,52.51957],[13.40694,52.51956],[13.40694,52.51956],[13.40694,52.51955],[13.40694,52.51955],[13.40694,52.51954],[13.40693,52.51954],[13.40693,52.51953],[13.40692,52.51953],[13.40691,52.51953],[13.40691,52.51953],[13.4069,52.51953],[13.40689,52.51953],[13.40688,52.51953],[13.40687,52.51953],[13.40687,52.51953],[13.40686,52.51953],[13.40686,52.51954],[13.40686,52.51953],[13.40683,52.51953],[13.40681,52.51953],[13.40681,52.51954],[13.4068,52.51954],[13.40679,52.51954],[13.40678,52.51954],[13.40677,52.51954],[13.40677,52.51954],[13.40676,52.51954],[13.40675,52.51954],[13.40675,52.51954]]],"type":"Polygon"}},{"type":"Feature","properties":{},"geometry":{"coordinates":[[[13.45311,52.49755],[13.45271,52.49758],[13.45264,52.49757],[13.45226,52.49751],[13.45199,52.49746],[13.45172,52.4974],[13.45151,52.49735],[13.45125,52.49727],[13.45105,52.49718],[13.4509,52.49711],[13.45064,52.49695],[13.4506,52.49696],[13.45034,52.49687],[13.45024,52.49681],[13.4503,52.49677],[13.45019,52.4967],[13.45017,52.49669],[13.45012,52.49671],[13.45008,52.49668],[13.45005,52.49666],[13.45003,52.49665],[13.44997,52.49661],[13.44991,52.49656],[13.44989,52.49655],[13.44987,52.49653],[13.44983,52.49651],[13.4499,52.49647],[13.44884,52.49567],[13.44778,52.49488],[13.4477,52.49484],[13.44761,52.49479],[13.44751,52.49475],[13.44741,52.49473],[13.44731,52.49471],[13.44716,52.4947],[13.44701,52.4947],[13.44697,52.4947],[13.44694,52.49471],[13.44689,52.49471],[13.44681,52.49472],[13.44671,52.49474],[13.4467,52.49474],[13.44665,52.49473],[13.44642,52.49475],[13.44618,52.49475],[13.44587,52.49473],[13.44558,52.49467],[13.44533,52.49461],[13.44516,52.49454],[13.44579,52.49508],[13.44578,52.49504],[13.44581,52.495],[13.44588,52.49498],[13.44691,52.49494],[13.44695,52.49492],[13.44705,52.49491],[13.44714,52.4949],[13.44716,52.4949],[13.44722,52.49492],[13.44729,52.4949],[13.44736,52.49491],[13.44742,52.49493],[13.44967,52.4966],[13.44975,52.49655],[13.44979,52.49658],[13.44982,52.4966],[13.44983,52.49661],[13.4499,52.49665],[13.44996,52.49669],[13.44998,52.49671],[13.45001,52.49673],[13.45005,52.49676],[13.44999,52.49679],[13.45013,52.49688],[13.45048,52.49711],[13.45047,52.49712],[13.45057,52.49718],[13.45066,52.49723],[13.45075,52.49726],[13.45073,52.49728],[13.45106,52.49741],[13.45107,52.49742],[13.45122,52.49747],[13.45132,52.49751],[13.45149,52.49756],[13.45161,52.4976],[13.45183,52.49765],[13.45205,52.49769],[13.45225,52.49772],[13.45239,52.49775],[13.45251,52.49777],[13.45255,52.49779],[13.4526,52.49781],[13.45263,52.49783],[13.45264,52.49785],[13.45266,52.49787],[13.45268,52.49789],[13.45269,52.4979],[13.45293,52.49771],[13.45311,52.49755]]],"type":"Polygon"}},{"type":"Feature","properties":{},"geometry":{"coordinates":[[[13.4285,52.51855],[13.4285,52.51851],[13.42848,52.51848],[13.42844,52.51845],[13.42839,52.51842],[13.42834,52.51841],[13.42828,52.51841],[13.42822,52.51841],[13.42816,52.51843],[13.42812,52.51846],[13.42809,52.51849],[13.42807,52.51853],[13.42808,52.51856],[13.4281,52.5186],[13.42813,52.51863],[13.42818,52.51865],[13.42824,52.51867],[13.4283,52.51867],[13.42836,52.51866],[13.42841,52.51865],[13.42846,52.51862],[13.42849,52.51859],[13.4285,52.51855]]],"type":"Polygon"}},{"type":"Feature","properties":{},"geometry":{"coordinates":[[[13.40559,52.49639],[13.40528,52.49642],[13.40529,52.49644],[13.40492,52.49646],[13.40307,52.49658],[13.40304,52.49658],[13.40168,52.49668],[13.40037,52.49688],[13.39991,52.49696],[13.39959,52.49702],[13.39932,52.49708],[13.39908,52.49713],[13.39889,52.49718],[13.39883,52.4972],[13.39862,52.49725],[13.39836,52.49735],[13.39799,52.49745],[13.39816,52.49763],[13.39829,52.4976],[13.39843,52.49756],[13.39875,52.49746],[13.39901,52.49738],[13.39933,52.4973],[13.39962,52.49724],[13.40011,52.49714],[13.4006,52.49705],[13.40164,52.49691],[13.40239,52.49683],[13.40299,52.49679],[13.40438,52.49669],[13.40506,52.49664],[13.40509,52.49664],[13.40515,52.49663],[13.40524,52.49662],[13.40534,52.49661],[13.40539,52.49661],[13.40542,52.49661],[13.40562,52.49662],[13.40561,52.49645],[13.40559,52.49639]]],"type":"Polygon"}},{"type":"Feature","properties":{},"geometry":{"coordinates":[[[13.38508,52.49864],[13.38482,52.49869],[13.38439,52.49877],[13.38387,52.49884],[13.38367,52.49885],[13.38317,52.49888],[13.38312,52.49888],[13.38289,52.49888],[13.38237,52.49881],[13.38218,52.49878],[13.38199,52.49876],[13.38172,52.49874],[13.3814,52.49874],[13.38113,52.49875],[13.38079,52.4988],[13.38053,52.49883],[13.38044,52.49884],[13.38044,52.49885],[13.38043,52.49886],[13.38015,52.49893],[13.38014,52.49891],[13.38012,52.49891],[13.3801,52.4989],[13.37947,52.49902],[13.3792,52.49909],[13.37921,52.49911],[13.37891,52.49922],[13.37889,52.4992],[13.37854,52.49934],[13.37839,52.49942],[13.3783,52.49947],[13.37822,52.49951],[13.37813,52.49956],[13.37797,52.49968],[13.37785,52.49977],[13.37774,52.49988],[13.37767,52.49996],[13.3776,52.50005],[13.37752,52.50017],[13.37729,52.50052],[13.37695,52.50105],[13.3768,52.50125],[13.37674,52.50132],[13.37667,52.50138],[13.37645,52.50161],[13.37624,52.50176],[13.3761,52.50187],[13.37519,52.50238],[13.37529,52.50249],[13.37539,52.50261],[13.3759,52.50233],[13.37614,52.50219],[13.37637,52.50203],[13.37647,52.50197],[13.37655,52.5019],[13.37675,52.50175],[13.3769,52.50163],[13.37705,52.50149],[13.37715,52.50138],[13.37722,52.50129],[13.37733,52.50114],[13.37744,52.50096],[13.3777,52.50049],[13.37795,52.50015],[13.37804,52.50004],[13.37815,52.49993],[13.37829,52.49982],[13.37844,52.49971],[13.37856,52.49965],[13.37887,52.49951],[13.37885,52.49948],[13.37908,52.4994],[13.37906,52.49939],[13.37939,52.49927],[13.3794,52.49928],[13.37945,52.49926],[13.37962,52.49922],[13.38014,52.49912],[13.38022,52.4991],[13.38049,52.49905],[13.38055,52.49907],[13.38079,52.49902],[13.38106,52.49899],[13.38127,52.49898],[13.38159,52.49898],[13.38186,52.49899],[13.38201,52.49898],[13.38274,52.49904],[13.38295,52.49905],[13.38307,52.49905],[13.38363,52.49905],[13.38412,52.49902],[13.3846,52.49895],[13.38494,52.4989],[13.38552,52.49877],[13.38857,52.49802],[13.38949,52.49785],[13.38996,52.49778],[13.3904,52.49773],[13.39064,52.49772],[13.39098,52.49771],[13.39143,52.49771],[13.3924,52.49777],[13.39297,52.49783],[13.3935,52.49789],[13.39446,52.498],[13.39492,52.49801],[13.39549,52.49797],[13.39627,52.49794],[13.39649,52.49791],[13.39663,52.49789],[13.39728,52.4978],[13.3976,52.49775],[13.39791,52.49769],[13.39816,52.49763],[13.39799,52.49745],[13.39782,52.49749],[13.39742,52.49756],[13.39702,52.49762],[13.39668,52.49767],[13.39623,52.49771],[13.39593,52.49773],[13.3957,52.49777],[13.39518,52.49779],[13.39478,52.4978],[13.39441,52.49777],[13.39395,52.49774],[13.39345,52.49769],[13.39292,52.49763],[13.39246,52.49757],[13.39232,52.49756],[13.3922,52.49755],[13.39169,52.49751],[13.39147,52.4975],[13.39142,52.4975],[13.39141,52.4975],[13.39135,52.4975],[13.391,52.49749],[13.39084,52.49749],[13.39068,52.4975],[13.3903,52.49751],[13.38988,52.49756],[13.38946,52.49763],[13.38841,52.49782],[13.38548,52.49856],[13.38508,52.49864]]],"type":"Polygon"}},{"type":"Feature","properties":{},"geometry":{"coordinates":[[[13.44367,52.51572],[13.44374,52.51573],[13.44381,52.5157],[13.44384,52.51566],[13.44383,52.51563],[13.44379,52.51561],[13.44372,52.51559],[13.4437,52.51556],[13.4437,52.51552],[13.4438,52.51539],[13.44368,52.51535],[13.44361,52.51539],[13.44353,52.51549],[13.4435,52.51554],[13.4435,52.51559],[13.44351,52.51563],[13.44357,52.5157],[13.44362,52.51572],[13.44367,52.51572]]],"type":"Polygon"}},{"type":"Feature","properties":{"w":5},"geometry":{"coordinates":[[13.38667,52.52169],[13.38694,52.52151]],"type":"LineString"}},{"type":"Feature","properties":{"w":5},"geometry":{"coordinates":[[13.38185,52.52568],[13.38195,52.52524],[13.38227,52.52486],[13.38231,52.52481],[13.38234,52.52479],[13.38239,52.52477],[13.38243,52.52475],[13.38248,52.52475],[13.38254,52.52474],[13.38259,52.52472],[13.38268,52.52469],[13.38273,52.52468],[13.38278,52.52468],[13.38281,52.52468],[13.38293,52.52471],[13.38298,52.52472],[13.38301,52.52473],[13.38306,52.52476],[13.3831,52.5248],[13.38318,52.52483],[13.38323,52.52485],[13.38328,52.52485],[13.38335,52.52486],[13.3834,52.52485],[13.38343,52.52484],[13.38354,52.52469],[13.38371,52.52454],[13.38382,52.52442],[13.38393,52.52427]],"type":"LineString"}},{"type":"Feature","properties":{"w":5},"geometry":{"coordinates":[[13.38167,52.5271],[13.38172,52.52695]],"type":"LineString"}},{"type":"Feature","properties":{"w":5},"geometry":{"coordinates":[[13.38393,52.52427],[13.38422,52.52379],[13.3845,52.52346],[13.3847,52.5233],[13.38502,52.52298],[13.38573,52.52261],[13.38588,52.52246],[13.38597,52.52235],[13.38603,52.5223],[13.38634,52.52203],[13.3865,52.52178],[13.38667,52.52169]],"type":"LineString"}},{"type":"Feature","properties":{},"geometry":{"coordinates":[[[13.41621,52.50282],[13.41616,52.50281],[13.41611,52.50282],[13.41609,52.50285],[13.41611,52.50288],[13.41616,52.50289],[13.41621,52.50288],[13.41622,52.50285],[13.41621,52.50282]]],"type":"Polygon"}},{"type":"Feature","properties":{},"geometry":{"coordinates":[[[13.42845,52.52697],[13.42842,52.52695],[13.42838,52.52693],[13.42834,52.52692],[13.42829,52.52693],[13.42825,52.52695],[13.42823,52.52697],[13.42822,52.527],[13.42823,52.52703],[13.42825,52.52705],[13.42829,52.52707],[13.42834,52.52707],[13.42838,52.52707],[13.42842,52.52705],[13.42845,52.52703],[13.42846,52.527],[13.42845,52.52697]]],"type":"Polygon"}},{"type":"Feature","properties":{},"geometry":{"coordinates":[[[13.41267,52.5221],[13.41271,52.52212],[13.41276,52.52212],[13.41282,52.52212],[13.41287,52.52211],[13.4129,52.52208],[13.41293,52.52205],[13.41293,52.52202],[13.41292,52.52199],[13.41289,52.52196],[13.41285,52.52194],[13.4128,52.52193],[13.41275,52.52193],[13.4127,52.52194],[13.41266,52.52196],[13.41262,52.52198],[13.41261,52.52201],[13.41261,52.52205],[13.41263,52.52208],[13.41267,52.5221]]],"type":"Polygon"}},{"type":"Feature","properties":{"w":5},"geometry":{"coordinates":[[13.38136,52.52767],[13.38155,52.52742],[13.38167,52.5271]],"type":"LineString"}},{"type":"Feature","properties":{"w":5},"geometry":{"coordinates":[[13.38192,52.52662],[13.38193,52.52657],[13.38195,52.5264],[13.38184,52.52586],[13.38185,52.52568]],"type":"LineString"}},{"type":"Feature","properties":{},"geometry":{"coordinates":[[[13.42668,52.52803],[13.42658,52.52804],[13.42655,52.52804],[13.42655,52.528],[13.42653,52.528],[13.42652,52.528],[13.42651,52.52799],[13.4265,52.52798],[13.4265,52.52796],[13.4265,52.52795],[13.42651,52.52794],[13.42653,52.52793],[13.42652,52.5279],[13.42654,52.52789],[13.42664,52.52788],[13.42664,52.52788],[13.42663,52.52789],[13.42662,52.5279],[13.42662,52.52791],[13.42663,52.52792],[13.42663,52.52793],[13.42664,52.52794],[13.42665,52.52795],[13.42667,52.52795],[13.42667,52.52796],[13.42667,52.52796],[13.42666,52.52797],[13.42665,52.52798],[13.42665,52.52799],[13.42665,52.528],[13.42666,52.52801],[13.42667,52.52802],[13.42668,52.52803],[13.42668,52.52803]]],"type":"Polygon"}},{"type":"Feature","properties":{"w":14},"geometry":{"coordinates":[[13.41283,52.51459],[13.41187,52.51472],[13.41136,52.51478]],"type":"LineString"}},{"type":"Feature","properties":{},"geometry":{"coordinates":[[[13.38285,52.5082],[13.38284,52.50815],[13.38285,52.5081],[13.38288,52.50805],[13.38293,52.50803],[13.383,52.50803],[13.38305,52.50806],[13.38305,52.50812],[13.38302,52.50817],[13.38297,52.50822],[13.38291,52.50823],[13.38285,52.5082]]],"type":"Polygon"}},{"type":"Feature","properties":{},"geometry":{"coordinates":[[[13.43862,52.49551],[13.43864,52.4955],[13.43866,52.49549],[13.43866,52.49548],[13.43866,52.49547],[13.43865,52.49546],[13.43863,52.49545],[13.43861,52.49546],[13.43859,52.49547],[13.43857,52.49548],[13.43856,52.49549],[13.43854,52.49549],[13.43854,52.4955],[13.43855,52.49551],[13.43856,52.49551],[13.43858,52.49552],[13.4386,52.49551],[13.43862,52.49551]]],"type":"Polygon"}},{"type":"Feature","properties":{"w":5},"geometry":{"coordinates":[[13.37767,52.52922],[13.37771,52.52918],[13.37907,52.52955],[13.37926,52.52936],[13.37939,52.52934],[13.37951,52.52932],[13.37962,52.52926],[13.38053,52.5285],[13.38052,52.52833],[13.38056,52.5283],[13.3809,52.52807]],"type":"LineString"}},{"type":"Feature","properties":{"w":5},"geometry":{"coordinates":[[13.3809,52.52807],[13.38122,52.52786]],"type":"LineString"}},{"type":"Feature","properties":{"w":5},"geometry":{"coordinates":[[13.38122,52.52786],[13.38136,52.52767]],"type":"LineString"}},{"type":"Feature","properties":{"w":5},"geometry":{"coordinates":[[13.38172,52.52695],[13.38192,52.52662]],"type":"LineString"}},{"type":"Feature","properties":{"w":14},"geometry":{"coordinates":[[13.44914,52.49782],[13.44899,52.49761]],"type":"LineString"}},{"type":"Feature","properties":{},"geometry":{"coordinates":[[[13.39744,52.52595],[13.39746,52.52596],[13.39747,52.52597],[13.39749,52.52597],[13.39751,52.52596],[13.39753,52.52596],[13.39754,52.52595],[13.39755,52.52594],[13.39755,52.52593],[13.39754,52.52592],[13.39753,52.52591],[13.39752,52.5259],[13.3975,52.5259],[13.39748,52.5259],[13.39747,52.5259],[13.39745,52.52591],[13.39744,52.52592],[13.39743,52.52593],[13.39743,52.52594],[13.39744,52.52595]]],"type":"Polygon"}},{"type":"Feature","properties":{"w":14},"geometry":{"coordinates":[[13.39745,52.51935],[13.39732,52.51947],[13.39715,52.51959],[13.39645,52.51993],[13.39563,52.5205],[13.39493,52.52099],[13.39478,52.5211],[13.39396,52.52168],[13.39365,52.52189],[13.39297,52.52239]],"type":"LineString"}},{"type":"Feature","properties":{"w":14},"geometry":{"coordinates":[[13.41132,52.51459],[13.40916,52.51477]],"type":"LineString"}},{"type":"Feature","properties":{"w":14},"geometry":{"coordinates":[[13.47746,52.49037],[13.47673,52.49075],[13.47554,52.49134],[13.47548,52.49137],[13.47492,52.49155],[13.47362,52.49188],[13.47208,52.49219],[13.46859,52.49337],[13.46474,52.49501],[13.46397,52.49539],[13.46369,52.49552],[13.463,52.49586],[13.46251,52.4961],[13.46073,52.49688],[13.45849,52.49771],[13.45636,52.49841],[13.45537,52.49855],[13.454,52.49896],[13.45161,52.49967],[13.44946,52.50031],[13.4457,52.50173]],"type":"LineString"}},{"type":"Feature","properties":{"w":14},"geometry":{"coordinates":[[13.41136,52.51478],[13.40921,52.51495]],"type":"LineString"}},{"type":"Feature","properties":{"w":14},"geometry":{"coordinates":[[13.40921,52.51495],[13.40873,52.51497],[13.40781,52.51501]],"type":"LineString"}},{"type":"Feature","properties":{"w":14},"geometry":{"coordinates":[[13.40781,52.51501],[13.40704,52.51513],[13.40624,52.51546],[13.40567,52.5158],[13.40511,52.51617],[13.40438,52.51678],[13.40406,52.51707],[13.40262,52.51849],[13.40235,52.51877],[13.40188,52.51921],[13.40146,52.51966],[13.40098,52.5201],[13.40041,52.52053],[13.40021,52.52071],[13.39996,52.52093],[13.39962,52.52114],[13.39906,52.52138],[13.39806,52.52163],[13.39747,52.52176],[13.39676,52.52192],[13.39565,52.52217],[13.39433,52.52229],[13.39406,52.52231],[13.39297,52.52239],[13.39168,52.52248],[13.39117,52.52246],[13.38948,52.52234],[13.38918,52.52231],[13.38833,52.52221],[13.38797,52.52211],[13.38694,52.52151],[13.38594,52.52095],[13.38541,52.52065],[13.38502,52.52043],[13.38446,52.52018],[13.3836,52.5199],[13.38221,52.51949],[13.38082,52.51922],[13.38025,52.5192],[13.37957,52.51918],[13.37917,52.51921],[13.37886,52.51924],[13.37855,52.51929],[13.37825,52.51936],[13.3779,52.51947],[13.37762,52.51956],[13.37734,52.51968],[13.37708,52.51981],[13.37678,52.52001],[13.37664,52.52017],[13.37662,52.5202],[13.37653,52.52033],[13.37649,52.52044],[13.37646,52.52055],[13.37645,52.52063],[13.37638,52.52094],[13.37632,52.52116],[13.37622,52.52142],[13.37605,52.52163],[13.37593,52.52178],[13.37583,52.52186],[13.37577,52.52191],[13.37556,52.52205],[13.37528,52.52223],[13.37495,52.52238],[13.37451,52.52259],[13.37402,52.52275],[13.37352,52.5229],[13.37312,52.52297],[13.37269,52.52302],[13.37221,52.52306]],"type":"LineString"}},{"type":"Feature","properties":{"w":14},"geometry":{"coordinates":[[13.44899,52.49761],[13.44869,52.49738],[13.44806,52.497]],"type":"LineString"}},{"type":"Feature","properties":{"w":14},"geometry":{"coordinates":[[13.44969,52.49816],[13.44914,52.49782],[13.44886,52.49767]],"type":"LineString"}},{"type":"Feature","properties":{"w":14},"geometry":{"coordinates":[[13.44886,52.49767],[13.44857,52.49745],[13.44806,52.497],[13.44769,52.49667],[13.44606,52.49539],[13.44534,52.49484],[13.44446,52.49417],[13.44401,52.49382],[13.44333,52.49329],[13.44086,52.49145],[13.44002,52.49097],[13.43908,52.49063]],"type":"LineString"}},{"type":"Feature","properties":{"w":14},"geometry":{"coordinates":[[13.45422,52.46676],[13.45588,52.46886],[13.45608,52.46911],[13.45701,52.47027],[13.45723,52.47056],[13.45771,52.47297],[13.45849,52.47669],[13.45837,52.47758],[13.4578,52.4781],[13.45735,52.47834],[13.45532,52.47938],[13.45201,52.48106],[13.44699,52.48365],[13.44444,52.48496],[13.44397,52.4852],[13.44141,52.48647],[13.44089,52.4868],[13.44051,52.48714],[13.44034,52.48739],[13.4401,52.48787],[13.43973,52.48892],[13.43949,52.48954],[13.43946,52.48964],[13.43944,52.48968],[13.43908,52.49063]],"type":"LineString"}},{"type":"Feature","properties":{"w":5},"geometry":{"coordinates":[[13.4407,52.49629],[13.44078,52.49626],[13.44093,52.49619],[13.44104,52.49615],[13.44114,52.49612],[13.44126,52.4961],[13.44133,52.49609],[13.44137,52.49608],[13.44143,52.49606],[13.44148,52.49604],[13.44154,52.49602],[13.44162,52.496],[13.44166,52.49599],[13.44171,52.49597],[13.44174,52.49595],[13.44177,52.49593],[13.44176,52.49589],[13.44178,52.49586],[13.44182,52.49584],[13.44187,52.49583],[13.44191,52.49581],[13.44194,52.49579],[13.44199,52.49577],[13.44204,52.49575],[13.44209,52.49572],[13.44215,52.49569],[13.44224,52.49565],[13.44228,52.49564]],"type":"LineString"}},{"type":"Feature","properties":{"w":14},"geometry":{"coordinates":[[13.4457,52.50173],[13.44505,52.50198],[13.43885,52.50452],[13.43722,52.50532],[13.4351,52.50637],[13.43284,52.50752],[13.42927,52.50916],[13.42869,52.50944],[13.42601,52.51099],[13.42594,52.51103],[13.42586,52.51108],[13.42465,52.51177],[13.42312,52.51238],[13.42265,52.51259],[13.41822,52.51415],[13.41781,52.51425],[13.41605,52.51466],[13.414,52.51466],[13.41364,52.51464],[13.41283,52.51459]],"type":"LineString"}},{"type":"Feature","properties":{},"geometry":{"coordinates":[[[13.42438,52.50207],[13.42438,52.50204],[13.42435,52.50202],[13.42428,52.50203],[13.42423,52.50205],[13.42423,52.50208],[13.42426,52.5021],[13.42433,52.50209],[13.42438,52.50207]]],"type":"Polygon"}},{"type":"Feature","properties":{},"geometry":{"coordinates":[[[13.44891,52.49765],[13.44886,52.49767],[13.44881,52.49769],[13.44939,52.49815],[13.44962,52.49817],[13.44964,52.49819],[13.44969,52.49816],[13.44974,52.49814],[13.44908,52.49762],[13.44909,52.49762],[13.44904,52.49758],[13.44904,52.49759],[13.44899,52.49761],[13.44894,52.49763],[13.44894,52.49763],[13.44898,52.49767],[13.44899,52.49767],[13.44902,52.49769],[13.44905,52.49772],[13.44905,52.49773],[13.44905,52.49773],[13.44904,52.49773],[13.44904,52.49773],[13.44903,52.49773],[13.44899,52.49771],[13.44891,52.49765]]],"type":"Polygon"}},{"type":"Feature","properties":{},"geometry":{"coordinates":[[[13.42684,52.52785],[13.42683,52.52786],[13.42682,52.52787],[13.42682,52.52787],[13.42682,52.52789],[13.42683,52.5279],[13.42683,52.52791],[13.42685,52.52792],[13.42686,52.52792],[13.42687,52.52793],[13.42687,52.52794],[13.42686,52.52795],[13.42685,52.52796],[13.42685,52.52797],[13.42685,52.52798],[13.42686,52.528],[13.42686,52.528],[13.42687,52.52801],[13.42688,52.52801],[13.42689,52.52802],[13.42699,52.52802],[13.42702,52.52802],[13.42704,52.52801],[13.42707,52.528],[13.42709,52.52799],[13.4271,52.52798],[13.42711,52.52797],[13.42712,52.52796],[13.42713,52.52794],[13.42713,52.52792],[13.42713,52.52791],[13.42712,52.52789],[13.4271,52.52787],[13.42708,52.52786],[13.42706,52.52784],[13.42703,52.52783],[13.427,52.52783],[13.42697,52.52783],[13.42693,52.52783],[13.42684,52.52785]]],"type":"Polygon"}},{"type":"Feature","properties":{},"geometry":{"coordinates":[[[13.42678,52.52803],[13.42668,52.52803],[13.42668,52.52803],[13.42667,52.52802],[13.42666,52.52801],[13.42665,52.528],[13.42665,52.52799],[13.42665,52.52798],[13.42666,52.52797],[13.42667,52.52796],[13.42667,52.52796],[13.42667,52.52795],[13.42665,52.52795],[13.42664,52.52794],[13.42663,52.52793],[13.42663,52.52792],[13.42662,52.52791],[13.42662,52.5279],[13.42663,52.52789],[13.42664,52.52788],[13.42664,52.52788],[13.42674,52.52786],[13.42674,52.52787],[13.42673,52.52787],[13.42672,52.52788],[13.42672,52.5279],[13.42673,52.52792],[13.42674,52.52793],[13.42675,52.52793],[13.42677,52.52794],[13.42677,52.52794],[13.42677,52.52795],[13.42676,52.52795],[13.42675,52.52796],[13.42675,52.52798],[13.42675,52.52799],[13.42676,52.52801],[13.42677,52.52802],[13.42678,52.52802],[13.42678,52.52803]]],"type":"Polygon"}},{"type":"Feature","properties":{},"geometry":{"coordinates":[[[13.42674,52.52786],[13.42684,52.52785],[13.42683,52.52786],[13.42682,52.52787],[13.42682,52.52787],[13.42682,52.52789],[13.42683,52.5279],[13.42683,52.52791],[13.42685,52.52792],[13.42686,52.52792],[13.42687,52.52793],[13.42687,52.52794],[13.42686,52.52795],[13.42685,52.52796],[13.42685,52.52797],[13.42685,52.52798],[13.42686,52.528],[13.42686,52.528],[13.42687,52.52801],[13.42688,52.52801],[13.42689,52.52802],[13.42678,52.52803],[13.42678,52.52802],[13.42677,52.52802],[13.42676,52.52801],[13.42675,52.52799],[13.42675,52.52798],[13.42675,52.52796],[13.42676,52.52795],[13.42677,52.52795],[13.42677,52.52794],[13.42677,52.52794],[13.42675,52.52793],[13.42674,52.52793],[13.42673,52.52792],[13.42672,52.5279],[13.42672,52.52788],[13.42673,52.52787],[13.42674,52.52787],[13.42674,52.52786]]],"type":"Polygon"}},{"type":"Feature","properties":{},"geometry":{"coordinates":[[[13.42507,52.51072],[13.42512,52.51076],[13.42525,52.51069],[13.42515,52.51066],[13.42507,52.51072]]],"type":"Polygon"}},{"type":"Feature","properties":{"w":14},"geometry":{"coordinates":[[13.454,52.49896],[13.45293,52.49771],[13.45201,52.49752],[13.45139,52.49739],[13.45101,52.49727],[13.45066,52.49709],[13.45006,52.49672],[13.44745,52.49487],[13.44691,52.49484],[13.44555,52.49486],[13.44534,52.49484]],"type":"LineString"}},{"type":"Feature","properties":{},"geometry":{"coordinates":[[[13.39959,52.51861],[13.39958,52.5186],[13.39958,52.51859],[13.39958,52.51858],[13.39958,52.51857],[13.39959,52.51856],[13.3996,52.51855],[13.39961,52.51854],[13.39962,52.51853],[13.39963,52.51853],[13.39965,52.51852],[13.39967,52.51852],[13.39969,52.51852],[13.3997,52.51852],[13.39972,52.51852],[13.39974,52.51853],[13.39975,52.51854],[13.39976,52.51854],[13.39978,52.51855],[13.39978,52.51856],[13.39979,52.51857],[13.39979,52.51858],[13.39979,52.51859],[13.39979,52.5186],[13.39978,52.51861],[13.39977,52.51862],[13.39976,52.51863],[13.39975,52.51864],[13.39973,52.51864],[13.39972,52.51865],[13.3997,52.51865],[13.39968,52.51865],[13.39966,52.51865],[13.39965,52.51865],[13.39963,52.51864],[13.39962,52.51864],[13.3996,52.51863],[13.39959,52.51862],[13.39959,52.51861]]],"type":"Polygon"}},{"type":"Feature","properties":{"w":14},"geometry":{"coordinates":[[13.414,52.51466],[13.41378,52.51446],[13.4137,52.51441],[13.4136,52.51438],[13.41308,52.51427],[13.41273,52.51422]],"type":"LineString"}},{"type":"Feature","properties":{"w":14},"geometry":{"coordinates":[[13.40632,52.51494],[13.40605,52.51508],[13.40559,52.51535],[13.4055,52.51541],[13.40541,52.51549],[13.40511,52.51617]],"type":"LineString"}},{"type":"Feature","properties":{"w":14},"geometry":{"coordinates":[[13.40334,52.51185],[13.40329,52.5119],[13.40303,52.51215],[13.40274,52.51246],[13.40263,52.51257],[13.40141,52.51377],[13.40055,52.51475],[13.40027,52.5151],[13.39987,52.51574],[13.39979,52.51585],[13.39966,52.51601]],"type":"LineString"}},{"type":"Feature","properties":{"w":14},"geometry":{"coordinates":[[13.39966,52.51601],[13.39912,52.51666],[13.39882,52.51711],[13.39865,52.51741],[13.39856,52.51762],[13.39842,52.51792],[13.39814,52.51839],[13.39774,52.51901],[13.39745,52.51935]],"type":"LineString"}},{"type":"Feature","properties":{"w":14},"geometry":{"coordinates":[[13.40822,52.51465],[13.40714,52.51471],[13.40689,52.51476],[13.40663,52.51483],[13.40643,52.51489],[13.40632,52.51494]],"type":"LineString"}},{"type":"Feature","properties":{"w":14},"geometry":{"coordinates":[[13.41273,52.51422],[13.41186,52.51406],[13.41162,52.51401],[13.41139,52.5139],[13.41066,52.51342],[13.41024,52.51318],[13.40992,52.51303],[13.40874,52.5126],[13.4082,52.51238],[13.40777,52.5122],[13.40721,52.51197],[13.40665,52.5118],[13.40609,52.51164],[13.40579,52.51158],[13.40543,52.51153],[13.40477,52.51147],[13.40451,52.51147],[13.40425,52.51148],[13.40391,52.51153],[13.40373,52.51158],[13.40349,52.51171],[13.40334,52.51185]],"type":"LineString"}},{"type":"Feature","properties":{"w":14},"geometry":{"coordinates":[[13.41273,52.51422],[13.41133,52.51433],[13.41017,52.51446],[13.40822,52.51465]],"type":"LineString"}},{"type":"Feature","properties":{},"geometry":{"coordinates":[[[13.44974,52.49814],[13.44969,52.49816],[13.44964,52.49819],[13.44964,52.49819],[13.44969,52.49822],[13.44969,52.49822],[13.4497,52.49823],[13.45003,52.49868],[13.45045,52.499],[13.45067,52.49893],[13.45091,52.49891],[13.45036,52.4985],[13.4498,52.49818],[13.44979,52.49817],[13.44979,52.49817],[13.44975,52.49814],[13.44974,52.49814]]],"type":"Polygon"}},{"type":"Feature","properties":{},"geometry":{"coordinates":[[[13.38119,52.50946],[13.38119,52.50948],[13.3812,52.50948],[13.38121,52.50949],[13.38122,52.5095],[13.38123,52.5095],[13.38125,52.5095],[13.38127,52.50951],[13.38128,52.5095],[13.3813,52.5095],[13.38132,52.50949],[13.38133,52.50949],[13.38134,52.50948],[13.38134,52.50947],[13.38135,52.50947],[13.38134,52.50948],[13.38133,52.50949],[13.38132,52.5095],[13.38129,52.50951],[13.38127,52.50951],[13.38125,52.50951],[13.38123,52.50951],[13.38122,52.5095],[13.3812,52.50949],[13.38119,52.50948],[13.38118,52.50947],[13.38118,52.50946],[13.38119,52.50946]]],"type":"Polygon"}},{"type":"Feature","properties":{},"geometry":{"coordinates":[[[13.40916,52.51477],[13.40915,52.51483],[13.40924,52.51483],[13.40924,52.51482],[13.41129,52.51465],[13.41129,52.51465],[13.41131,52.51465],[13.41132,52.51459],[13.41128,52.51453],[13.41126,52.51453],[13.41126,52.51454],[13.40921,52.51471],[13.40921,52.5147],[13.40912,52.51471],[13.40916,52.51477]]],"type":"Polygon"}},{"type":"Feature","properties":{},"geometry":{"coordinates":[[[13.40916,52.51489],[13.40921,52.51495],[13.40919,52.51502],[13.40928,52.51501],[13.40928,52.515],[13.41133,52.51483],[13.41133,52.51484],[13.41135,52.51484],[13.41136,52.51478],[13.41132,52.51471],[13.4113,52.51472],[13.41131,52.51472],[13.40925,52.5149],[13.40925,52.51489],[13.40916,52.51489]]],"type":"Polygon"}},{"type":"Feature","properties":{"w":14},"geometry":{"coordinates":[[13.39224,52.49766],[13.39201,52.49764],[13.39175,52.49762]],"type":"LineString"}},{"type":"Feature","properties":{"w":14},"geometry":{"coordinates":[[13.43908,52.49063],[13.43822,52.49064],[13.43737,52.49079],[13.43728,52.49082],[13.43539,52.49141],[13.43279,52.49226],[13.42843,52.49366],[13.4224,52.49559],[13.42115,52.49589],[13.42043,52.496],[13.42005,52.49602],[13.4194,52.49604],[13.41855,52.496],[13.418,52.49593],[13.41699,52.49556],[13.41639,52.4954],[13.41565,52.49531],[13.41514,52.49525],[13.41413,52.49521],[13.41286,52.49525],[13.40561,52.49645],[13.40519,52.49653],[13.40516,52.49654],[13.40462,52.4966],[13.40392,52.49664],[13.40308,52.49668],[13.4023,52.49675],[13.40161,52.49681],[13.4009,52.4969],[13.40038,52.49698],[13.39983,52.49708],[13.39921,52.49721],[13.39899,52.49727],[13.39882,52.49732],[13.39805,52.49752],[13.3975,52.49764],[13.39695,52.49773],[13.39642,52.4978],[13.39575,52.49787],[13.39529,52.49788],[13.39482,52.49788],[13.39432,52.49786],[13.3938,52.49782],[13.39306,52.49774],[13.39224,52.49766]],"type":"LineString"}},{"type":"Feature","properties":{},"geometry":{"coordinates":[[[13.39889,52.52042],[13.39891,52.5204],[13.39889,52.52039],[13.39889,52.52039],[13.39889,52.52038],[13.39888,52.52038],[13.39886,52.52038],[13.39885,52.52037],[13.39883,52.52038],[13.39882,52.52038],[13.39881,52.52039],[13.3988,52.52039],[13.39881,52.5204],[13.39879,52.52041],[13.39881,52.52042],[13.39881,52.52043],[13.39881,52.52043],[13.39883,52.52044],[13.39884,52.52043],[13.39886,52.52044],[13.39887,52.52043],[13.39888,52.52043],[13.39889,52.52043],[13.3989,52.52042],[13.39889,52.52042]]],"type":"Polygon"}},{"type":"Feature","properties":{},"geometry":{"coordinates":[[[13.42324,52.51736],[13.42322,52.51737],[13.42322,52.51739],[13.42324,52.5174],[13.42325,52.51741],[13.42329,52.51742],[13.42332,52.5174],[13.42333,52.51738],[13.4233,52.51736],[13.42327,52.51735],[13.42324,52.51736]]],"type":"Polygon"}},{"type":"Feature","properties":{"w":14},"geometry":{"coordinates":[[13.40916,52.51477],[13.40867,52.5148],[13.40781,52.51501]],"type":"LineString"}},{"type":"Feature","properties":{"w":14},"geometry":{"coordinates":[[13.41283,52.51459],[13.41184,52.51454],[13.41132,52.51459]],"type":"LineString"}},{"type":"Feature","properties":{"w":5},"geometry":{"coordinates":[[13.43487,52.52647],[13.43483,52.52648],[13.4348,52.52649],[13.43474,52.52651],[13.43469,52.52653],[13.43468,52.52655],[13.43464,52.52658],[13.43462,52.5266],[13.43461,52.52662],[13.43461,52.52666],[13.43461,52.52667],[13.43457,52.52669],[13.43454,52.52669],[13.43449,52.52671],[13.43445,52.52676],[13.4344,52.52679],[13.43439,52.5268],[13.43437,52.52684],[13.43435,52.52697]],"type":"LineString"}},{"type":"Feature","properties":{},"geometry":{"coordinates":[[[13.42049,52.51012],[13.42067,52.51007],[13.42074,52.51018],[13.42056,52.51022],[13.42049,52.51012]]],"type":"Polygon"}},{"type":"Feature","properties":{"w":5},"geometry":{"coordinates":[[13.44068,52.4963],[13.4407,52.49629]],"type":"LineString"}},{"type":"Feature","properties":{"w":5},"geometry":{"coordinates":[[13.44065,52.49632],[13.44068,52.4963]],"type":"LineString"}},{"type":"Feature","properties":{},"geometry":{"coordinates":[[[13.43456,52.52769],[13.43454,52.52769],[13.43453,52.52769],[13.43452,52.52768],[13.43451,52.52767],[13.4345,52.52767],[13.43449,52.52766],[13.43449,52.52765],[13.43449,52.52764],[13.4345,52.52763],[13.4345,52.52763],[13.43451,52.52762],[13.43452,52.52761],[13.43453,52.52761],[13.43455,52.5276],[13.43456,52.5276],[13.43457,52.5276],[13.43459,52.5276],[13.4346,52.52761],[13.43461,52.52761],[13.43462,52.52762],[13.43463,52.52763],[13.43463,52.52764],[13.43464,52.52764],[13.43464,52.52765],[13.43463,52.52766],[13.43463,52.52767],[13.43462,52.52768],[13.43461,52.52768],[13.4346,52.52769],[13.43458,52.52769],[13.43457,52.52769],[13.43456,52.52769]]],"type":"Polygon"}},{"type":"Feature","properties":{},"geometry":{"coordinates":[[[13.39853,52.51673],[13.39853,52.51673],[13.39852,52.51673],[13.39852,52.51673],[13.39852,52.51672],[13.39851,52.51672],[13.39851,52.51671],[13.39852,52.51671],[13.39852,52.51671],[13.39852,52.5167],[13.39853,52.5167],[13.39853,52.5167],[13.39854,52.5167],[13.39854,52.5167],[13.39855,52.5167],[13.39856,52.5167],[13.39856,52.5167],[13.39857,52.5167],[13.39857,52.5167],[13.39858,52.5167],[13.39858,52.51671],[13.39858,52.51671],[13.39858,52.51672],[13.39858,52.51672],[13.39858,52.51672],[13.39858,52.51673],[13.39857,52.51673],[13.39857,52.51673],[13.39856,52.51673],[13.39856,52.51674],[13.39855,52.51674],[13.39854,52.51674],[13.39854,52.51674],[13.39853,52.51673]]],"type":"Polygon"}},{"type":"Feature","properties":{},"geometry":{"coordinates":[[[13.41748,52.50465],[13.41754,52.50474],[13.41757,52.50474],[13.41758,52.50476],[13.41757,52.50477],[13.41763,52.50485],[13.4176,52.50486],[13.41754,52.50478],[13.41752,52.50477],[13.41751,52.50476],[13.41752,52.50474],[13.41746,52.50466],[13.41748,52.50465]]],"type":"Polygon"}},{"type":"Feature","properties":{},"geometry":{"coordinates":[[[13.41729,52.52969],[13.41728,52.52968],[13.41727,52.52968],[13.41726,52.52968],[13.41725,52.52969],[13.41725,52.52969],[13.41725,52.5297],[13.41725,52.52971],[13.41725,52.52971],[13.41726,52.52971],[13.41727,52.52972],[13.41727,52.52972],[13.41728,52.52972],[13.41729,52.52972],[13.4173,52.52971],[13.4173,52.52971],[13.41731,52.5297],[13.41731,52.5297],[13.4173,52.52969],[13.41729,52.52969]]],"type":"Polygon"}},{"type":"Feature","properties":{"w":5},"geometry":{"coordinates":[[13.41728,52.52968],[13.4173,52.52965],[13.41731,52.52963],[13.4173,52.52961],[13.41727,52.52959],[13.41722,52.52956],[13.41717,52.52955],[13.41715,52.52953],[13.41714,52.5295],[13.41713,52.52948],[13.41711,52.52946],[13.41706,52.52941],[13.41703,52.52939],[13.41697,52.52938],[13.41694,52.52937],[13.41693,52.52935],[13.41691,52.52933],[13.41696,52.52925],[13.41695,52.52902],[13.41695,52.52898],[13.41694,52.52876]],"type":"LineString"}},{"type":"Feature","properties":{},"geometry":{"coordinates":[[[13.43833,52.49103],[13.43837,52.49107],[13.4384,52.4911],[13.43835,52.49111],[13.4384,52.49116],[13.43833,52.49103]]],"type":"Polygon"}},{"type":"Feature","properties":{},"geometry":{"coordinates":[[[13.43745,52.49089],[13.43752,52.49087],[13.43753,52.49088],[13.43784,52.49083],[13.438,52.49082],[13.43811,52.49081],[13.43821,52.49082],[13.43836,52.49087],[13.43846,52.49093],[13.43852,52.49096],[13.43833,52.49103],[13.43745,52.49089]]],"type":"Polygon"}},{"type":"Feature","properties":{},"geometry":{"coordinates":[[[13.4373,52.4907],[13.43737,52.49079],[13.43745,52.49089],[13.4373,52.4907]]],"type":"Polygon"}},{"type":"Feature","properties":{},"geometry":{"coordinates":[[[13.44904,52.49759],[13.44884,52.49743],[13.44863,52.49724],[13.44862,52.49721],[13.44842,52.49708],[13.44798,52.49674],[13.44687,52.49589],[13.44666,52.49572],[13.44649,52.4956],[13.4462,52.49538],[13.44612,52.49531],[13.44579,52.49508],[13.44516,52.49454],[13.44481,52.49435],[13.44468,52.49424],[13.44463,52.49424],[13.44449,52.49413],[13.44452,52.49412],[13.44448,52.49409],[13.44403,52.49374],[13.4434,52.49325],[13.44233,52.4924],[13.44218,52.49229],[13.44131,52.49162],[13.44117,52.4915],[13.44087,52.49126],[13.44066,52.49111],[13.44047,52.49099],[13.44022,52.49087],[13.44002,52.49074],[13.43988,52.49061],[13.43981,52.49049],[13.43972,52.49035],[13.43969,52.49025],[13.43964,52.49009],[13.43962,52.48969],[13.43963,52.48966],[13.43963,52.48966],[13.43962,52.48966],[13.43946,52.48964],[13.43927,52.48961],[13.43926,52.48961],[13.43926,52.48962],[13.43925,52.48964],[13.4386,52.49015],[13.43828,52.49039],[13.4373,52.4907],[13.44904,52.49759]]],"type":"Polygon"}},{"type":"Feature","properties":{},"geometry":{"coordinates":[[[13.4442,52.4942],[13.44426,52.49421],[13.44441,52.49433],[13.44443,52.49438],[13.44519,52.49495],[13.44586,52.49546],[13.44636,52.49585],[13.44837,52.49739],[13.44863,52.49756],[13.44881,52.49769],[13.44886,52.49767],[13.44891,52.49765],[13.44849,52.49731],[13.44849,52.4973],[13.4485,52.4973],[13.44894,52.49763],[13.44899,52.49761],[13.44904,52.49759],[13.4442,52.4942]]],"type":"Polygon"}},{"type":"Feature","properties":{},"geometry":{"coordinates":[[[13.4384,52.49116],[13.43866,52.49106],[13.43866,52.49105],[13.43878,52.49102],[13.43891,52.49101],[13.439,52.491],[13.43913,52.49103],[13.43986,52.49121],[13.44025,52.49133],[13.44074,52.49154],[13.44084,52.49161],[13.44114,52.49182],[13.44135,52.49197],[13.44197,52.49245],[13.44211,52.49256],[13.44319,52.49341],[13.4441,52.49412],[13.4442,52.4942],[13.4384,52.49116]]],"type":"Polygon"}},{"type":"Feature","properties":{},"geometry":{"coordinates":[[[13.4373,52.4907],[13.43708,52.49077],[13.43654,52.49094],[13.43544,52.49129],[13.43545,52.49129],[13.43519,52.49137],[13.43519,52.49137],[13.43491,52.49146],[13.43229,52.49229],[13.43047,52.49287],[13.42949,52.49319],[13.42847,52.49352],[13.42751,52.49383],[13.42679,52.49407],[13.42413,52.49492],[13.42332,52.49518],[13.42307,52.49526],[13.42275,52.49537],[13.42249,52.49545],[13.42243,52.49546],[13.42222,52.49552],[13.42198,52.4956],[13.4219,52.49562],[13.42133,52.49574],[13.42071,52.49585],[13.4204,52.49588],[13.41991,52.49593],[13.41954,52.49596],[13.41941,52.49596],[13.41917,52.49596],[13.41876,52.49592],[13.41846,52.4959],[13.41823,52.49586],[13.41811,52.49584],[13.41801,52.4958],[13.41758,52.49565],[13.41707,52.49545],[13.41683,52.49538],[13.4166,52.49533],[13.41635,52.49528],[13.41535,52.49517],[13.41532,52.49518],[13.41527,52.49519],[13.41524,52.49519],[13.41521,52.49519],[13.41519,52.49519],[13.41517,52.49518],[13.41508,52.49518],[13.41506,52.49518],[13.41504,52.49517],[13.415,52.49517],[13.41498,52.49517],[13.41496,52.49517],[13.41496,52.49517],[13.41494,52.49517],[13.41494,52.49517],[13.41493,52.49516],[13.41493,52.49516],[13.41493,52.49515],[13.41491,52.49515],[13.4149,52.49512],[13.41449,52.49509],[13.41437,52.49509],[13.41425,52.49509],[13.4141,52.49509],[13.41413,52.49521],[13.41416,52.49531],[13.41442,52.49532],[13.41465,52.49534],[13.41496,52.49536],[13.41498,52.49536],[13.41498,52.49535],[13.41498,52.49535],[13.41499,52.49535],[13.415,52.49535],[13.415,52.49535],[13.41501,52.49535],[13.41504,52.49535],[13.41508,52.49535],[13.4151,52.49535],[13.41512,52.49536],[13.4152,52.49536],[13.41523,52.49536],[13.41525,52.49537],[13.41528,52.49537],[13.41531,52.49537],[13.41533,52.49537],[13.41533,52.49538],[13.41535,52.49538],[13.41535,52.49538],[13.41536,52.49538],[13.41536,52.49539],[13.41622,52.49547],[13.41681,52.49561],[13.41751,52.49586],[13.41786,52.49599],[13.418,52.49603],[13.41814,52.49606],[13.41825,52.49608],[13.41841,52.4961],[13.41873,52.49613],[13.41906,52.49615],[13.41939,52.49616],[13.41967,52.49617],[13.41975,52.49617],[13.42024,52.49612],[13.42027,52.49615],[13.42029,52.49614],[13.42029,52.49614],[13.42043,52.49612],[13.42044,52.49613],[13.42107,52.496],[13.42107,52.49601],[13.42183,52.49586],[13.42209,52.49579],[13.42228,52.49575],[13.42242,52.49571],[13.4227,52.49563],[13.42301,52.49553],[13.42333,52.49543],[13.42716,52.49418],[13.42837,52.49378],[13.42864,52.49369],[13.4294,52.49344],[13.43018,52.49319],[13.43183,52.49267],[13.43536,52.49155],[13.43536,52.49155],[13.43562,52.49147],[13.43562,52.49147],[13.43637,52.49123],[13.43741,52.4909],[13.4373,52.4907]]],"type":"Polygon"}},{"type":"Feature","properties":{},"geometry":{"coordinates":[[[13.4373,52.4907],[13.43737,52.49079],[13.43745,52.49089],[13.4373,52.4907]]],"type":"Polygon"}},{"type":"Feature","properties":{},"geometry":{"coordinates":[[[13.40595,52.51592],[13.40641,52.51571],[13.40695,52.51548],[13.40697,52.5155],[13.40703,52.51548],[13.40764,52.5153],[13.40905,52.51503],[13.40917,52.51501],[13.40917,52.51502],[13.40919,52.51502],[13.40928,52.51501],[13.40928,52.515],[13.41133,52.51483],[13.41133,52.51484],[13.41135,52.51484],[13.41143,52.51483],[13.41143,52.51482],[13.41153,52.51482],[13.41292,52.51489],[13.41334,52.5149],[13.41339,52.51495],[13.41374,52.51498],[13.414,52.51466],[13.41397,52.51428],[13.41347,52.51412],[13.41243,52.51381],[13.4122,52.51374],[13.41205,52.51369],[13.41184,52.51363],[13.41149,52.51352],[13.41107,52.51338],[13.41103,52.51338],[13.41083,52.51324],[13.40595,52.51592]]],"type":"Polygon"}},{"type":"Feature","properties":{},"geometry":{"coordinates":[[[13.4103,52.5135],[13.41049,52.51366],[13.41066,52.51378],[13.41083,52.51393],[13.41066,52.514],[13.41055,52.51407],[13.41025,52.51415],[13.41005,52.51417],[13.40941,52.51424],[13.40925,52.51427],[13.40912,52.5143],[13.40896,52.51435],[13.4085,52.51455],[13.40847,52.51456],[13.40844,52.51457],[13.4084,52.51457],[13.40837,52.51458],[13.40798,52.51459],[13.40711,52.51465],[13.40693,52.5147],[13.40645,52.51483],[13.40638,52.51485],[13.40631,52.51487],[13.40626,52.5149],[13.40602,52.51501],[13.40578,52.51515],[13.40562,52.51525],[13.40556,52.51528],[13.40552,52.51531],[13.40544,52.51538],[13.40539,52.51544],[13.40532,52.51552],[13.4103,52.5135]]],"type":"Polygon"}},{"type":"Feature","properties":{},"geometry":{"coordinates":[[[13.3936,52.52211],[13.39359,52.52213],[13.3936,52.52216],[13.39361,52.52218],[13.39364,52.52219],[13.39368,52.52219],[13.39377,52.52217],[13.39379,52.52219],[13.39381,52.52219],[13.39383,52.5222],[13.39387,52.52219],[13.39398,52.52217],[13.39409,52.52215],[13.39432,52.52212],[13.39435,52.52212],[13.39439,52.52211],[13.39439,52.52212],[13.39452,52.5221],[13.39459,52.52209],[13.3946,52.52209],[13.3946,52.52209],[13.3946,52.52208],[13.39541,52.52199],[13.39541,52.522],[13.39555,52.52198],[13.39562,52.52198],[13.39608,52.52193],[13.39664,52.52176],[13.39667,52.52175],[13.39775,52.52153],[13.39867,52.5213],[13.39976,52.52047],[13.39994,52.52055],[13.40018,52.52034],[13.40008,52.52029],[13.4002,52.52024],[13.40047,52.5201],[13.40076,52.51993],[13.40088,52.51985],[13.40122,52.51959],[13.40161,52.51927],[13.4018,52.51904],[13.40195,52.51884],[13.40197,52.51882],[13.40197,52.51878],[13.40201,52.51872],[13.40207,52.51865],[13.40219,52.51855],[13.40226,52.51852],[13.4023,52.51848],[13.40253,52.51825],[13.40362,52.5172],[13.40374,52.5171],[13.40376,52.5171],[13.40395,52.5169],[13.40397,52.51688],[13.40398,52.51687],[13.40399,52.51685],[13.40399,52.51683],[13.40398,52.51681],[13.40397,52.5168],[13.40396,52.51678],[13.40392,52.51676],[13.40508,52.5158],[13.40503,52.51577],[13.40532,52.51552],[13.3936,52.52211]]],"type":"Polygon"}},{"type":"Feature","properties":{},"geometry":{"coordinates":[[[13.40595,52.51592],[13.40567,52.51605],[13.40549,52.51618],[13.40541,52.51624],[13.40514,52.51643],[13.40445,52.517],[13.40433,52.51711],[13.40418,52.51725],[13.40408,52.51733],[13.40379,52.51759],[13.40329,52.5181],[13.40319,52.51821],[13.40317,52.5182],[13.40314,52.51823],[13.40316,52.51824],[13.40288,52.51853],[13.40288,52.51854],[13.40287,52.51856],[13.40272,52.51871],[13.4027,52.51872],[13.40264,52.51871],[13.4026,52.51871],[13.40259,52.51871],[13.40237,52.51892],[13.40237,52.51894],[13.40238,52.51896],[13.4024,52.51898],[13.40243,52.519],[13.40241,52.51902],[13.40236,52.51908],[13.40234,52.5191],[13.40232,52.51913],[13.40213,52.51933],[13.40155,52.51993],[13.4015,52.51998],[13.40119,52.52031],[13.40118,52.52031],[13.40112,52.52038],[13.40113,52.52038],[13.40089,52.52063],[13.40088,52.52063],[13.40088,52.52063],[13.40087,52.52063],[13.40086,52.52063],[13.40085,52.52063],[13.40086,52.52062],[13.40081,52.5206],[13.4008,52.52061],[13.40056,52.52081],[13.40065,52.52084],[13.40067,52.52086],[13.40067,52.5209],[13.4006,52.52097],[13.4005,52.52108],[13.40033,52.52122],[13.40013,52.52133],[13.39997,52.52138],[13.39895,52.52162],[13.39894,52.5216],[13.39729,52.52199],[13.39695,52.52209],[13.3962,52.52224],[13.39564,52.52233],[13.39429,52.52248],[13.39429,52.52249],[13.39411,52.52251],[13.39406,52.52252],[13.39303,52.52262],[13.39205,52.52267],[13.39184,52.52268],[13.39176,52.52268],[13.3916,52.52268],[13.39137,52.52268],[13.39061,52.52265],[13.38922,52.52257],[13.3881,52.5225],[13.38808,52.52248],[13.3877,52.52233],[13.3876,52.52226],[13.3876,52.52225],[13.3867,52.5217],[13.3867,52.52169],[13.38669,52.52169],[13.38669,52.52169],[13.38668,52.5217],[13.38668,52.5217],[13.38667,52.52169],[13.38665,52.52169],[13.38666,52.52168],[13.38666,52.52168],[13.38666,52.52168],[13.38666,52.52167],[13.38666,52.52167],[13.38545,52.52094],[13.38488,52.52062],[13.38487,52.52062],[13.38486,52.52062],[13.38486,52.52063],[13.38485,52.52062],[13.38485,52.52062],[13.38485,52.52061],[13.38485,52.52061],[13.3847,52.52052],[13.38407,52.5203],[13.38286,52.51995],[13.38252,52.51985],[13.38166,52.5196],[13.3815,52.51955],[13.3815,52.51957],[13.3807,52.51952],[13.38001,52.51947],[13.37957,52.51944],[13.37914,52.51945],[13.379,52.51946],[13.37893,52.51947],[13.37879,52.51948],[13.3786,52.51952],[13.37843,52.51955],[13.37823,52.5196],[13.37805,52.51966],[13.37788,52.51972],[13.37772,52.51977],[13.37756,52.51984],[13.37742,52.51991],[13.3773,52.51997],[13.37723,52.52001],[13.37719,52.52004],[13.37711,52.5201],[13.37705,52.52015],[13.37697,52.52022],[13.37692,52.52029],[13.37687,52.52035],[13.37684,52.52042],[13.3768,52.52054],[13.37676,52.52069],[13.37672,52.52085],[13.37668,52.52103],[13.37664,52.52122],[13.3766,52.52131],[13.37657,52.5214],[13.37647,52.52158],[13.37637,52.52172],[13.37625,52.52189],[13.37608,52.52207],[13.376,52.52213],[13.37596,52.52216],[13.37588,52.52221],[13.3758,52.52226],[13.37544,52.52243],[13.37494,52.52209],[13.37505,52.52203],[13.37529,52.5219],[13.37539,52.52183],[13.37557,52.52166],[13.37562,52.5216],[13.37564,52.52158],[13.37585,52.52132],[13.37593,52.52121],[13.37599,52.52097],[13.37603,52.52079],[13.37615,52.52031],[13.37637,52.51999],[13.37652,52.51985],[13.37668,52.51973],[13.37674,52.5197],[13.377,52.51956],[13.37746,52.51937],[13.37766,52.51931],[13.37784,52.51925],[13.37797,52.51921],[13.37824,52.51915],[13.3785,52.51909],[13.3788,52.51904],[13.37901,52.51901],[13.3792,52.51899],[13.37947,52.51897],[13.37972,52.51896],[13.37992,52.51896],[13.3801,52.51897],[13.38013,52.51898],[13.38045,52.51901],[13.38101,52.51907],[13.38135,52.51912],[13.38169,52.51918],[13.38209,52.51928],[13.38249,52.51938],[13.38318,52.51959],[13.38368,52.51974],[13.38417,52.51989],[13.38468,52.52004],[13.38513,52.52019],[13.38515,52.52018],[13.38554,52.5204],[13.3867,52.52109],[13.38667,52.5211],[13.38677,52.52116],[13.38686,52.52122],[13.38688,52.52121],[13.38746,52.52155],[13.38744,52.52157],[13.38752,52.52161],[13.38759,52.52165],[13.38761,52.52164],[13.38773,52.52171],[13.38825,52.52197],[13.38851,52.52204],[13.38854,52.52205],[13.38923,52.52211],[13.38923,52.52214],[13.38928,52.52214],[13.38928,52.52212],[13.38987,52.52214],[13.39019,52.52216],[13.39058,52.52218],[13.39107,52.52219],[13.39157,52.52218],[13.39186,52.52217],[13.39248,52.52213],[13.39279,52.52206],[13.39332,52.52193],[13.40595,52.51592]]],"type":"Polygon"}},{"type":"Feature","properties":{},"geometry":{"coordinates":[[[13.42326,52.5127],[13.4235,52.51258],[13.42389,52.51242],[13.4243,52.51227],[13.42468,52.51217],[13.42486,52.51208],[13.4256,52.51166],[13.42572,52.51159],[13.42723,52.51068],[13.42765,52.51047],[13.42804,52.51027],[13.42802,52.51026],[13.42856,52.50998],[13.42858,52.50999],[13.4287,52.50992],[13.42937,52.50954],[13.4294,52.50953],[13.42943,52.50952],[13.42952,52.5095],[13.4296,52.50947],[13.42964,52.50945],[13.42967,52.50944],[13.42985,52.50936],[13.43154,52.5086],[13.43354,52.5078],[13.43375,52.50771],[13.43391,52.50762],[13.43559,52.50673],[13.43659,52.5062],[13.4369,52.50604],[13.43808,52.50541],[13.43885,52.505],[13.43894,52.50495],[13.43919,52.50486],[13.44127,52.50409],[13.44179,52.50391],[13.44207,52.50381],[13.44469,52.50287],[13.44488,52.50278],[13.44493,52.50276],[13.44506,52.50271],[13.44587,52.5024],[13.44608,52.50234],[13.44611,52.50233],[13.44648,52.50217],[13.44679,52.50206],[13.44725,52.50192],[13.44958,52.50128],[13.4495,52.50116],[13.44946,52.50117],[13.44945,52.50117],[13.44944,52.50115],[13.44945,52.50114],[13.45195,52.50046],[13.45196,52.50045],[13.45234,52.50033],[13.45282,52.50018],[13.45396,52.49982],[13.45563,52.49929],[13.45667,52.49897],[13.45774,52.49863],[13.45949,52.49809],[13.46147,52.49746],[13.46181,52.49736],[13.46289,52.49702],[13.46282,52.49696],[13.46277,52.49638],[13.46309,52.49623],[13.46318,52.4963],[13.46323,52.49627],[13.4638,52.49602],[13.46392,52.49595],[13.46386,52.4959],[13.46391,52.49587],[13.46386,52.49584],[13.46412,52.49571],[13.46413,52.49572],[13.46425,52.49566],[13.46421,52.49564],[13.46443,52.49554],[13.46463,52.4955],[13.46565,52.49519],[13.4669,52.49479],[13.46765,52.49455],[13.46833,52.49428],[13.46904,52.494],[13.46975,52.49372],[13.4704,52.49346],[13.47047,52.49346],[13.47049,52.49347],[13.47071,52.49339],[13.47089,52.49331],[13.47177,52.49302],[13.47187,52.49315],[13.47195,52.49312],[13.47186,52.49299],[13.47254,52.49278],[13.47278,52.49273],[13.47286,52.49272],[13.47288,52.49273],[13.47315,52.49267],[13.47317,52.49265],[13.47343,52.49261],[13.47348,52.49261],[13.47357,52.4926],[13.4736,52.49259],[13.47367,52.49259],[13.47394,52.49252],[13.47407,52.49251],[13.47418,52.49249],[13.47426,52.49247],[13.47432,52.49247],[13.47444,52.49245],[13.47472,52.49239],[13.47476,52.49239],[13.47489,52.49237],[13.47495,52.49236],[13.4752,52.49232],[13.47565,52.49224],[13.47561,52.49217],[13.47574,52.49215],[13.47578,52.49222],[13.476,52.49218],[13.47629,52.49213],[13.47634,52.4921],[13.47638,52.49209],[13.47641,52.49208],[13.47644,52.49209],[13.47649,52.49209],[13.47674,52.49202],[13.47704,52.49192],[13.47807,52.49133],[13.47811,52.49129],[13.47848,52.49101],[13.47896,52.49062],[13.47916,52.49047],[13.47925,52.49039],[13.47944,52.49024],[13.47983,52.48994],[13.47983,52.48993],[13.47985,52.4899],[13.47992,52.48983],[13.48001,52.48977],[13.48042,52.48939],[13.47918,52.48906],[13.47771,52.48878],[13.47705,52.48933],[13.47618,52.48994],[13.47557,52.49028],[13.4736,52.49112],[13.47295,52.49122],[13.47165,52.49144],[13.47029,52.49175],[13.4695,52.49202],[13.46851,52.49235],[13.46702,52.49271],[13.46582,52.49316],[13.46578,52.49317],[13.46575,52.49318],[13.46545,52.4933],[13.46515,52.49341],[13.46511,52.49342],[13.46506,52.49344],[13.46446,52.49366],[13.46442,52.49368],[13.46438,52.49369],[13.46406,52.49383],[13.46403,52.49384],[13.46399,52.49386],[13.46354,52.49406],[13.46352,52.49407],[13.4635,52.49408],[13.46337,52.49414],[13.46335,52.49415],[13.46333,52.49416],[13.4632,52.49422],[13.46318,52.49435],[13.46395,52.49499],[13.46398,52.49501],[13.46398,52.49502],[13.46398,52.49504],[13.46398,52.49506],[13.46397,52.49508],[13.46395,52.4951],[13.46383,52.49516],[13.46373,52.49521],[13.46374,52.49522],[13.46363,52.49526],[13.4634,52.49537],[13.46326,52.49544],[13.46311,52.4954],[13.46316,52.49545],[13.463,52.49552],[13.46296,52.49549],[13.46247,52.49572],[13.4625,52.49575],[13.4622,52.49588],[13.46157,52.49583],[13.4615,52.49576],[13.45953,52.49653],[13.45949,52.49654],[13.45927,52.49659],[13.45835,52.49677],[13.4563,52.49718],[13.45507,52.49742],[13.45504,52.49737],[13.45475,52.49743],[13.45444,52.49749],[13.45409,52.49755],[13.45406,52.49756],[13.45361,52.49754],[13.45353,52.49753],[13.45336,52.49753],[13.45311,52.49755],[13.45293,52.49771],[13.45269,52.4979],[13.4527,52.49793],[13.4527,52.49795],[13.45271,52.49799],[13.45272,52.49802],[13.45272,52.49806],[13.45276,52.49808],[13.45278,52.4981],[13.45272,52.49824],[13.45269,52.49826],[13.45223,52.49851],[13.45216,52.49847],[13.45143,52.49893],[13.45091,52.49891],[13.45067,52.49893],[13.45045,52.499],[13.45046,52.49903],[13.45044,52.49906],[13.45019,52.49919],[13.45012,52.49923],[13.45001,52.49929],[13.44972,52.49944],[13.44964,52.49948],[13.44901,52.4997],[13.44861,52.49983],[13.44851,52.49986],[13.44798,52.50002],[13.4479,52.50005],[13.44782,52.50007],[13.44774,52.5001],[13.44768,52.50012],[13.44703,52.50033],[13.44695,52.50036],[13.44687,52.50039],[13.44679,52.50041],[13.44651,52.50051],[13.44597,52.50074],[13.44585,52.5008],[13.44568,52.50088],[13.44544,52.50101],[13.44537,52.50104],[13.44523,52.5011],[13.44516,52.50113],[13.44482,52.5013],[13.44482,52.5013],[13.4448,52.50129],[13.44362,52.50186],[13.44363,52.50187],[13.44145,52.50292],[13.44019,52.50337],[13.43899,52.50382],[13.4385,52.504],[13.43805,52.50422],[13.43787,52.50429],[13.43755,52.50438],[13.43714,52.50456],[13.43705,52.50461],[13.43607,52.50523],[13.43616,52.50527],[13.43608,52.50531],[13.43611,52.50533],[13.436,52.50538],[13.43598,52.50537],[13.43591,52.5054],[13.43589,52.50539],[13.43585,52.50541],[13.4356,52.50557],[13.4355,52.50564],[13.43503,52.50583],[13.43464,52.506],[13.43459,52.50602],[13.4344,52.5061],[13.43399,52.50637],[13.4322,52.50729],[13.43057,52.50801],[13.4294,52.50857],[13.42925,52.50867],[13.4292,52.50872],[13.4292,52.50878],[13.42917,52.50878],[13.42917,52.50883],[13.42914,52.50885],[13.42911,52.50886],[13.42913,52.5089],[13.42902,52.50893],[13.42889,52.50897],[13.42886,52.50898],[13.42866,52.50899],[13.42838,52.50907],[13.4277,52.50951],[13.42705,52.50989],[13.42606,52.51047],[13.42447,52.5114],[13.42318,52.51208],[13.42308,52.51212],[13.42303,52.51212],[13.42278,52.51223],[13.42279,52.51225],[13.42326,52.5127]]],"type":"Polygon"}},{"type":"Feature","properties":{},"geometry":{"coordinates":[[[13.42279,52.51225],[13.42225,52.51249],[13.42209,52.51242],[13.42096,52.51284],[13.42099,52.51297],[13.42095,52.51298],[13.41938,52.51349],[13.41849,52.51378],[13.41812,52.51391],[13.41803,52.51393],[13.41785,52.51399],[13.41776,52.51401],[13.41761,52.51405],[13.41749,52.51408],[13.41719,52.51414],[13.41712,52.51418],[13.41709,52.5142],[13.41705,52.51422],[13.41702,52.51423],[13.41695,52.51425],[13.41684,52.51427],[13.41676,52.51429],[13.41664,52.51431],[13.41652,52.51432],[13.41639,52.51433],[13.41571,52.51438],[13.41528,52.51441],[13.41495,52.51443],[13.41487,52.51443],[13.41479,52.51443],[13.41467,52.51442],[13.41456,52.51441],[13.41444,52.5144],[13.41435,52.51439],[13.41427,52.51437],[13.41418,52.51435],[13.41397,52.51428],[13.414,52.51466],[13.41374,52.51498],[13.4142,52.51503],[13.41431,52.51505],[13.41445,52.51506],[13.4146,52.51507],[13.41471,52.51507],[13.41479,52.51507],[13.41489,52.51507],[13.41511,52.51506],[13.4151,52.51502],[13.41542,52.515],[13.41544,52.51511],[13.41544,52.51512],[13.41545,52.51514],[13.41546,52.51515],[13.41548,52.51516],[13.4155,52.51517],[13.41553,52.51518],[13.41555,52.51519],[13.41558,52.5152],[13.4156,52.5152],[13.41568,52.5152],[13.41689,52.51514],[13.41737,52.51473],[13.41746,52.51465],[13.41748,52.51464],[13.41749,52.51463],[13.41751,52.51462],[13.41754,52.5146],[13.41757,52.51459],[13.4176,52.51458],[13.41813,52.51445],[13.41837,52.51439],[13.41838,52.5144],[13.41851,52.51437],[13.41881,52.51424],[13.41913,52.51413],[13.41952,52.51401],[13.42039,52.51375],[13.42132,52.51344],[13.42228,52.51313],[13.42291,52.51286],[13.42323,52.51272],[13.42326,52.5127],[13.42279,52.51225]]],"type":"Polygon"}},{"type":"Feature","properties":{},"geometry":{"coordinates":[[[13.41083,52.51324],[13.41041,52.51308],[13.40848,52.51243],[13.40836,52.51236],[13.40822,52.51229],[13.40818,52.51227],[13.40789,52.51213],[13.40744,52.51195],[13.40718,52.51184],[13.40682,52.51173],[13.40657,52.51166],[13.40594,52.51151],[13.40587,52.5115],[13.40579,52.51149],[13.40566,52.51147],[13.40563,52.51145],[13.40509,52.5114],[13.40474,52.51137],[13.4045,52.51137],[13.40372,52.51139],[13.40368,52.51139],[13.40363,52.5114],[13.4036,52.51141],[13.40358,52.51142],[13.40355,52.51143],[13.40353,52.51144],[13.4035,52.51145],[13.40348,52.51146],[13.40347,52.51148],[13.40345,52.51149],[13.40316,52.5118],[13.40305,52.51193],[13.40272,52.51229],[13.40254,52.51248],[13.40132,52.51366],[13.40131,52.51367],[13.4013,52.51367],[13.40122,52.51376],[13.40122,52.51377],[13.40121,52.51379],[13.4012,52.51383],[13.40037,52.51472],[13.40024,52.51495],[13.40022,52.51501],[13.40018,52.51507],[13.40015,52.51511],[13.40002,52.51528],[13.39997,52.51535],[13.39991,52.51543],[13.39959,52.51593],[13.39946,52.51607],[13.3983,52.51736],[13.39831,52.51737],[13.39825,52.51743],[13.39825,52.51746],[13.39826,52.51746],[13.39817,52.51775],[13.39765,52.51883],[13.39741,52.51919],[13.39742,52.5192],[13.39742,52.5192],[13.39742,52.51921],[13.39742,52.51922],[13.39725,52.5194],[13.3972,52.5194],[13.39707,52.51954],[13.39631,52.51987],[13.39622,52.51991],[13.39501,52.52077],[13.39484,52.52088],[13.39466,52.52102],[13.39447,52.52114],[13.39358,52.52177],[13.39362,52.52179],[13.39348,52.5219],[13.39344,52.52188],[13.3934,52.52191],[13.39332,52.52193],[13.41083,52.51324]]],"type":"Polygon"}},{"type":"Feature","properties":{},"geometry":{"coordinates":[[[13.3936,52.52211],[13.39369,52.52208],[13.39368,52.52206],[13.39368,52.52205],[13.39368,52.52204],[13.39371,52.52202],[13.39368,52.522],[13.39382,52.5219],[13.39386,52.52192],[13.39407,52.52178],[13.39406,52.52177],[13.39419,52.52168],[13.39421,52.52167],[13.39421,52.52167],[13.39475,52.5213],[13.39475,52.52129],[13.39474,52.52129],[13.39475,52.52129],[13.39488,52.52119],[13.39489,52.52119],[13.3949,52.52119],[13.3949,52.52119],[13.39491,52.52119],[13.39493,52.52119],[13.39496,52.52117],[13.39513,52.52104],[13.39516,52.52102],[13.39523,52.52097],[13.39571,52.52062],[13.39584,52.52053],[13.39636,52.52016],[13.39665,52.51995],[13.39714,52.5197],[13.3974,52.51952],[13.39742,52.51953],[13.39766,52.51931],[13.39768,52.51929],[13.39813,52.51872],[13.39863,52.51809],[13.39885,52.51782],[13.39885,52.5178],[13.39888,52.5175],[13.3989,52.5175],[13.3989,52.51748],[13.3989,52.51748],[13.39891,52.51748],[13.39891,52.51747],[13.39892,52.51747],[13.39893,52.51745],[13.39899,52.51742],[13.39925,52.5171],[13.39954,52.51679],[13.3996,52.51673],[13.39936,52.51662],[13.39945,52.51655],[13.39947,52.51656],[13.39948,52.51655],[13.39949,52.51654],[13.39949,52.51652],[13.39949,52.51651],[13.39948,52.51649],[13.39947,52.51648],[13.39946,52.51647],[13.39944,52.51646],[13.39977,52.51619],[13.39976,52.51618],[13.39975,52.51617],[13.39974,52.51616],[13.39973,52.51615],[13.39974,52.51613],[13.39985,52.51598],[13.40018,52.51547],[13.40031,52.51529],[13.40045,52.51511],[13.40064,52.51487],[13.40122,52.51417],[13.40147,52.51388],[13.40148,52.51387],[13.40149,52.51386],[13.40149,52.51386],[13.40157,52.51378],[13.40214,52.51321],[13.4028,52.51258],[13.40298,52.5124],[13.40329,52.51207],[13.40342,52.51193],[13.40351,52.51186],[13.40363,52.51178],[13.40383,52.51171],[13.40392,52.51168],[13.4046,52.51157],[13.40562,52.51165],[13.40576,52.51168],[13.40591,52.5117],[13.40707,52.51203],[13.40784,52.51234],[13.40798,52.51241],[13.40822,52.5125],[13.40906,52.51283],[13.40958,52.51301],[13.40998,52.51321],[13.4103,52.5135],[13.3936,52.52211]]],"type":"Polygon"}},{"type":"Feature","properties":{},"geometry":{"coordinates":[[[13.40819,52.52053],[13.40823,52.52035],[13.40783,52.52016],[13.40779,52.52034],[13.40819,52.52053]]],"type":"Polygon"}},{"type":"Feature","properties":{},"geometry":{"coordinates":[[[13.40838,52.52024],[13.40866,52.52017],[13.40826,52.51998],[13.40798,52.52005],[13.40838,52.52024]]],"type":"Polygon"}},{"type":"Feature","properties":{},"geometry":{"coordinates":[[[13.44374,52.49482],[13.4437,52.49485],[13.44368,52.49487],[13.44368,52.49488],[13.4437,52.4949],[13.44373,52.49492],[13.44375,52.49495],[13.44376,52.49497],[13.44376,52.49498],[13.44376,52.49499],[13.44375,52.495],[13.44373,52.49501],[13.44368,52.49502],[13.44357,52.49502],[13.44345,52.49502],[13.44336,52.49503],[13.44329,52.49504],[13.44325,52.49506],[13.44322,52.49508],[13.44321,52.4951],[13.44321,52.49512],[13.44322,52.49514],[13.44324,52.49517],[13.44325,52.49518],[13.44325,52.4952],[13.44325,52.49521],[13.44323,52.49522],[13.44318,52.49524],[13.44314,52.49525],[13.44307,52.49527],[13.44299,52.49529],[13.4429,52.49529],[13.44284,52.4953],[13.44279,52.49531],[13.44277,52.49532],[13.44274,52.49534],[13.44271,52.49537],[13.44269,52.4954],[13.44265,52.49543],[13.44263,52.49545],[13.44262,52.49547],[13.4426,52.49549],[13.44256,52.4955],[13.4425,52.49553],[13.44241,52.49557],[13.44234,52.4956],[13.44229,52.49562],[13.44228,52.49563],[13.44228,52.49564],[13.44229,52.49564],[13.44231,52.49564],[13.44234,52.49564],[13.44244,52.49559],[13.44255,52.49553],[13.44267,52.49547],[13.44272,52.49544],[13.44277,52.49543],[13.44284,52.49542],[13.44289,52.4954],[13.44294,52.49538],[13.44298,52.49538],[13.44305,52.49537],[13.44313,52.49537],[13.44319,52.49537],[13.44326,52.49536],[13.4433,52.49535],[13.44336,52.49534],[13.44343,52.49531],[13.44351,52.49528],[13.4436,52.49524],[13.44367,52.49521],[13.44373,52.49519],[13.44379,52.49517],[13.44387,52.49516],[13.44394,52.49515],[13.44399,52.49515],[13.44404,52.49514],[13.4441,52.49513],[13.44417,52.4951],[13.44421,52.49506],[13.44424,52.49504],[13.44425,52.49501],[13.44424,52.49498],[13.44422,52.49495],[13.44418,52.49492],[13.44414,52.49488],[13.44409,52.49483],[13.44406,52.4948],[13.44402,52.49479],[13.44397,52.49478],[13.44391,52.49478],[13.44386,52.49478],[13.4438,52.49479],[13.44374,52.49482]]],"type":"Polygon"}},{"type":"Feature","properties":{},"geometry":{"coordinates":[[[13.43301,52.52749],[13.4331,52.52753],[13.43318,52.52756],[13.43325,52.52756],[13.43328,52.52756],[13.43336,52.52755],[13.43342,52.52754],[13.43352,52.5275],[13.43357,52.52748],[13.43388,52.52734],[13.4339,52.52731],[13.43391,52.52725],[13.43393,52.52723],[13.434,52.52722],[13.43411,52.52723],[13.43419,52.52722],[13.43441,52.52712],[13.43444,52.52708],[13.43445,52.52706],[13.43443,52.52702],[13.4344,52.52699],[13.43435,52.52697],[13.43432,52.52697],[13.43426,52.52697],[13.43406,52.52701],[13.4339,52.52702],[13.43378,52.52701],[13.43367,52.52701],[13.43356,52.52703],[13.43345,52.52705],[13.43307,52.52721],[13.43304,52.52723],[13.433,52.52726],[13.43296,52.52731],[13.43295,52.52736],[13.43295,52.52739],[13.43296,52.52742],[13.433,52.52748],[13.43301,52.52749]]],"type":"Polygon"}},{"type":"Feature","properties":{},"geometry":{"coordinates":[[[13.41978,52.50488],[13.41991,52.50486],[13.41991,52.50482],[13.41989,52.50481],[13.4198,52.50481],[13.41974,52.50483],[13.41975,52.50486],[13.41978,52.50488]]],"type":"Polygon"}}]}
